[{"OBJECT_NAME":"SOYUZ-MS 28","OBJECT_ID":"2025-275A","EPOCH":"2026-03-17T04:38:23.008704","MEAN_MOTION":15.48337753,"ECCENTRICITY":0.00062264,"INCLINATION":51.6337,"RA_OF_ASC_NODE":35.2624,"ARG_OF_PERICENTER":201.0018,"MEAN_ANOMALY":159.0715,"EPHEMERIS_TYPE":0,"CLASSIFICATION_TYPE":"U","NORAD_CAT_ID":66664,"ELEMENT_SET_NO":999,"REV_AT_EPOCH":55452,"BSTAR":0.00023613801,"MEAN_MOTION_DOT":0.0001229,"MEAN_MOTION_DDOT":0},{"OBJECT_NAME":"DUPLEX","OBJECT_ID":"1998-067XS","EPOCH":"2026-03-17T03:53:44.784096","MEAN_MOTION":15.56715573,"ECCENTRICITY":0.00028723,"INCLINATION":51.6297,"RA_OF_ASC_NODE":32.0587,"ARG_OF_PERICENTER":144.1909,"MEAN_ANOMALY":215.9276,"EPHEMERIS_TYPE":0,"CLASSIFICATION_TYPE":"U","NORAD_CAT_ID":66906,"ELEMENT_SET_NO":999,"REV_AT_EPOCH":1629,"BSTAR":0.00037023225,"MEAN_MOTION_DOT":0.00026558,"MEAN_MOTION_DDOT":0},{"OBJECT_NAME":"ISS OBJECT XT","OBJECT_ID":"1998-067XT","EPOCH":"2026-03-17T03:42:49.776192","MEAN_MOTION":15.71838586,"ECCENTRICITY":0.00048985,"INCLINATION":51.6248,"RA_OF_ASC_NODE":27.4856,"ARG_OF_PERICENTER":129.1683,"MEAN_ANOMALY":230.975,"EPHEMERIS_TYPE":0,"CLASSIFICATION_TYPE":"U","NORAD_CAT_ID":66907,"ELEMENT_SET_NO":999,"REV_AT_EPOCH":1635,"BSTAR":0.0011555054,"MEAN_MOTION_DOT":0.00155646,"MEAN_MOTION_DDOT":0},{"OBJECT_NAME":"ISS OBJECT XU","OBJECT_ID":"1998-067XU","EPOCH":"2026-03-17T00:36:13.614912","MEAN_MOTION":15.71945163,"ECCENTRICITY":0.00051244,"INCLINATION":51.6245,"RA_OF_ASC_NODE":28.1163,"ARG_OF_PERICENTER":129.6122,"MEAN_ANOMALY":230.5329,"EPHEMERIS_TYPE":0,"CLASSIFICATION_TYPE":"U","NORAD_CAT_ID":66908,"ELEMENT_SET_NO":999,"REV_AT_EPOCH":1633,"BSTAR":0.0011324813,"MEAN_MOTION_DOT":0.00153187,"MEAN_MOTION_DDOT":0},{"OBJECT_NAME":"SILVERSAT","OBJECT_ID":"1998-067XV","EPOCH":"2026-03-17T03:19:00.952608","MEAN_MOTION":15.75587031,"ECCENTRICITY":0.00055709,"INCLINATION":51.6238,"RA_OF_ASC_NODE":26.6181,"ARG_OF_PERICENTER":131.0135,"MEAN_ANOMALY":229.1347,"EPHEMERIS_TYPE":0,"CLASSIFICATION_TYPE":"U","NORAD_CAT_ID":66909,"ELEMENT_SET_NO":999,"REV_AT_EPOCH":1636,"BSTAR":0.0012396482,"MEAN_MOTION_DOT":0.00197318,"MEAN_MOTION_DDOT":0},{"OBJECT_NAME":"ISS OBJECT XW","OBJECT_ID":"1998-067XW","EPOCH":"2026-03-17T02:09:11.231712","MEAN_MOTION":15.70910501,"ECCENTRICITY":0.00055069,"INCLINATION":51.6242,"RA_OF_ASC_NODE":27.7936,"ARG_OF_PERICENTER":131.834,"MEAN_ANOMALY":228.3129,"EPHEMERIS_TYPE":0,"CLASSIFICATION_TYPE":"U","NORAD_CAT_ID":66910,"ELEMENT_SET_NO":999,"REV_AT_EPOCH":1634,"BSTAR":0.001091936,"MEAN_MOTION_DOT":0.00141178,"MEAN_MOTION_DDOT":0},{"OBJECT_NAME":"ISS OBJECT XX","OBJECT_ID":"1998-067XX","EPOCH":"2026-03-17T02:50:02.978592","MEAN_MOTION":15.79712162,"ECCENTRICITY":0.00070421,"INCLINATION":51.6215,"RA_OF_ASC_NODE":25.7089,"ARG_OF_PERICENTER":135.4242,"MEAN_ANOMALY":224.7327,"EPHEMERIS_TYPE":0,"CLASSIFICATION_TYPE":"U","NORAD_CAT_ID":66911,"ELEMENT_SET_NO":999,"REV_AT_EPOCH":1636,"BSTAR":0.0013355239,"MEAN_MOTION_DOT":0.00257633,"MEAN_MOTION_DDOT":0},{"OBJECT_NAME":"ISS OBJECT XY","OBJECT_ID":"1998-067XY","EPOCH":"2026-03-17T02:51:37.218528","MEAN_MOTION":15.65191911,"ECCENTRICITY":0.00035942,"INCLINATION":51.6277,"RA_OF_ASC_NODE":29.5129,"ARG_OF_PERICENTER":133.657,"MEAN_ANOMALY":226.4723,"EPHEMERIS_TYPE":0,"CLASSIFICATION_TYPE":"U","NORAD_CAT_ID":66912,"ELEMENT_SET_NO":999,"REV_AT_EPOCH":1631,"BSTAR":0.00075960936,"MEAN_MOTION_DOT":0.00076876,"MEAN_MOTION_DDOT":0},{"OBJECT_NAME":"KNACKSAT-2","OBJECT_ID":"1998-067XZ","EPOCH":"2026-03-17T06:15:06.788736","MEAN_MOTION":15.52473462,"ECCENTRICITY":0.00096159,"INCLINATION":51.6316,"RA_OF_ASC_NODE":34.2124,"ARG_OF_PERICENTER":212.5523,"MEAN_ANOMALY":147.4875,"EPHEMERIS_TYPE":0,"CLASSIFICATION_TYPE":"U","NORAD_CAT_ID":67683,"ELEMENT_SET_NO":999,"REV_AT_EPOCH":596,"BSTAR":0.00051351732,"MEAN_MOTION_DOT":0.00031723,"MEAN_MOTION_DDOT":0},{"OBJECT_NAME":"GXIBA-1","OBJECT_ID":"1998-067YA","EPOCH":"2026-03-17T03:43:34.336992","MEAN_MOTION":15.55594857,"ECCENTRICITY":0.00118032,"INCLINATION":51.6309,"RA_OF_ASC_NODE":34.2605,"ARG_OF_PERICENTER":202.1834,"MEAN_ANOMALY":157.8648,"EPHEMERIS_TYPE":0,"CLASSIFICATION_TYPE":"U","NORAD_CAT_ID":67684,"ELEMENT_SET_NO":999,"REV_AT_EPOCH":595,"BSTAR":0.0010242052,"MEAN_MOTION_DOT":0.00071908,"MEAN_MOTION_DDOT":0},{"OBJECT_NAME":"CORAL","OBJECT_ID":"1998-067YB","EPOCH":"2026-03-17T03:00:35.141472","MEAN_MOTION":15.5289155,"ECCENTRICITY":0.00115393,"INCLINATION":51.6322,"RA_OF_ASC_NODE":34.8103,"ARG_OF_PERICENTER":208.7599,"MEAN_ANOMALY":151.2756,"EPHEMERIS_TYPE":0,"CLASSIFICATION_TYPE":"U","NORAD_CAT_ID":67685,"ELEMENT_SET_NO":999,"REV_AT_EPOCH":594,"BSTAR":0.00053452164,"MEAN_MOTION_DOT":0.00033584,"MEAN_MOTION_DDOT":0},{"OBJECT_NAME":"ISS OBJECT YC","OBJECT_ID":"1998-067YC","EPOCH":"2026-03-17T04:21:00.401760","MEAN_MOTION":15.53596478,"ECCENTRICITY":0.0008506,"INCLINATION":51.6318,"RA_OF_ASC_NODE":34.4356,"ARG_OF_PERICENTER":178.152,"MEAN_ANOMALY":181.9503,"EPHEMERIS_TYPE":0,"CLASSIFICATION_TYPE":"U","NORAD_CAT_ID":67686,"ELEMENT_SET_NO":999,"REV_AT_EPOCH":595,"BSTAR":0.00065715727,"MEAN_MOTION_DOT":0.00042474,"MEAN_MOTION_DDOT":0},{"OBJECT_NAME":"LEOPARD","OBJECT_ID":"1998-067YD","EPOCH":"2026-03-17T06:10:23.876256","MEAN_MOTION":15.52675757,"ECCENTRICITY":0.00081642,"INCLINATION":51.6319,"RA_OF_ASC_NODE":34.1927,"ARG_OF_PERICENTER":181.8584,"MEAN_ANOMALY":178.2377,"EPHEMERIS_TYPE":0,"CLASSIFICATION_TYPE":"U","NORAD_CAT_ID":67687,"ELEMENT_SET_NO":999,"REV_AT_EPOCH":588,"BSTAR":0.00053337497,"MEAN_MOTION_DOT":0.00033202,"MEAN_MOTION_DDOT":0},{"OBJECT_NAME":"ISS OBJECT YE","OBJECT_ID":"1998-067YE","EPOCH":"2026-03-17T04:26:35.359872","MEAN_MOTION":15.53273796,"ECCENTRICITY":0.00082543,"INCLINATION":51.6319,"RA_OF_ASC_NODE":34.4615,"ARG_OF_PERICENTER":178.8227,"MEAN_ANOMALY":181.2784,"EPHEMERIS_TYPE":0,"CLASSIFICATION_TYPE":"U","NORAD_CAT_ID":67688,"ELEMENT_SET_NO":999,"REV_AT_EPOCH":587,"BSTAR":0.0006148397,"MEAN_MOTION_DOT":0.00039222,"MEAN_MOTION_DDOT":0},{"OBJECT_NAME":"CREW DRAGON 12","OBJECT_ID":"2026-031A","EPOCH":"2026-03-17T04:38:23.008704","MEAN_MOTION":15.48337753,"ECCENTRICITY":0.00062264,"INCLINATION":51.6337,"RA_OF_ASC_NODE":35.2624,"ARG_OF_PERICENTER":201.0018,"MEAN_ANOMALY":159.0715,"EPHEMERIS_TYPE":0,"CLASSIFICATION_TYPE":"U","NORAD_CAT_ID":67796,"ELEMENT_SET_NO":999,"REV_AT_EPOCH":55741,"BSTAR":0.00023613801,"MEAN_MOTION_DOT":0.0001229,"MEAN_MOTION_DDOT":0}]
